[{"OBJECT_NAME":"ONEWEB-0399","OBJECT_ID":"2021-132L","EPOCH":"2025-11-07T06:00:21.728736","MEAN_MOTION":13.11414282,"ECCENTRICITY":0.00010658,"INCLINATION":87.8852,"RA_OF_ASC_NODE":65.2603,"ARG_OF_PERICENTER":105.2848,"MEAN_ANOMALY":254.8398,"EPHEMERIS_TYPE":0,"CLASSIFICATION_TYPE":"U","NORAD_CAT_ID":50479,"ELEMENT_SET_NO":999,"REV_AT_EPOCH":18651,"BSTAR":0.0005798794,"MEAN_MOTION_DOT":2.18e-6,"MEAN_MOTION_DDOT":0},{"OBJECT_NAME":"ONEWEB-0400","OBJECT_ID":"2021-132M","EPOCH":"2025-11-07T05:19:19.417728","MEAN_MOTION":13.18687751,"ECCENTRICITY":0.00019159,"INCLINATION":87.9223,"RA_OF_ASC_NODE":19.5258,"ARG_OF_PERICENTER":95.6644,"MEAN_ANOMALY":264.4707,"EPHEMERIS_TYPE":0,"CLASSIFICATION_TYPE":"U","NORAD_CAT_ID":50480,"ELEMENT_SET_NO":999,"REV_AT_EPOCH":19235,"BSTAR":9.4997005e-5,"MEAN_MOTION_DOT":5.0e-7,"MEAN_MOTION_DDOT":0},{"OBJECT_NAME":"ONEWEB-0401","OBJECT_ID":"2021-132N","EPOCH":"2025-11-07T06:23:28.231008","MEAN_MOTION":13.18686923,"ECCENTRICITY":0.00018378,"INCLINATION":87.9223,"RA_OF_ASC_NODE":19.5142,"ARG_OF_PERICENTER":107.0076,"MEAN_ANOMALY":253.1258,"EPHEMERIS_TYPE":0,"CLASSIFICATION_TYPE":"U","NORAD_CAT_ID":50481,"ELEMENT_SET_NO":999,"REV_AT_EPOCH":19236,"BSTAR":3.6527057e-5,"MEAN_MOTION_DOT":2.7e-7,"MEAN_MOTION_DDOT":0},{"OBJECT_NAME":"ONEWEB-0402","OBJECT_ID":"2021-132P","EPOCH":"2025-11-07T05:31:12.514944","MEAN_MOTION":13.18686597,"ECCENTRICITY":0.00020103,"INCLINATION":87.9224,"RA_OF_ASC_NODE":19.5141,"ARG_OF_PERICENTER":119.3256,"MEAN_ANOMALY":240.8077,"EPHEMERIS_TYPE":0,"CLASSIFICATION_TYPE":"U","NORAD_CAT_ID":50482,"ELEMENT_SET_NO":999,"REV_AT_EPOCH":19238,"BSTAR":0.00011300104,"MEAN_MOTION_DOT":5.7e-7,"MEAN_MOTION_DDOT":0},{"OBJECT_NAME":"ONEWEB-0403","OBJECT_ID":"2021-132Q","EPOCH":"2025-11-07T06:06:50.127840","MEAN_MOTION":13.18687143,"ECCENTRICITY":0.00017211,"INCLINATION":87.9226,"RA_OF_ASC_NODE":19.53,"ARG_OF_PERICENTER":97.8892,"MEAN_ANOMALY":262.2435,"EPHEMERIS_TYPE":0,"CLASSIFICATION_TYPE":"U","NORAD_CAT_ID":50483,"ELEMENT_SET_NO":999,"REV_AT_EPOCH":19234,"BSTAR":2.8201996e-5,"MEAN_MOTION_DOT":2.4e-7,"MEAN_MOTION_DDOT":0},{"OBJECT_NAME":"ONEWEB-0404","OBJECT_ID":"2021-132R","EPOCH":"2025-11-06T18:34:18.861888","MEAN_MOTION":13.11418146,"ECCENTRICITY":0.00012482,"INCLINATION":87.8851,"RA_OF_ASC_NODE":65.3634,"ARG_OF_PERICENTER":93.7531,"MEAN_ANOMALY":266.3739,"EPHEMERIS_TYPE":0,"CLASSIFICATION_TYPE":"U","NORAD_CAT_ID":50484,"ELEMENT_SET_NO":999,"REV_AT_EPOCH":18654,"BSTAR":0.0014959645,"MEAN_MOTION_DOT":5.43e-6,"MEAN_MOTION_DDOT":0},{"OBJECT_NAME":"ONEWEB-0405","OBJECT_ID":"2021-132S","EPOCH":"2025-11-07T06:28:12.980352","MEAN_MOTION":13.18686609,"ECCENTRICITY":0.00017676,"INCLINATION":87.9224,"RA_OF_ASC_NODE":19.5109,"ARG_OF_PERICENTER":110.8769,"MEAN_ANOMALY":249.2553,"EPHEMERIS_TYPE":0,"CLASSIFICATION_TYPE":"U","NORAD_CAT_ID":50485,"ELEMENT_SET_NO":999,"REV_AT_EPOCH":19274,"BSTAR":0.00023229894,"MEAN_MOTION_DOT":1.04e-6,"MEAN_MOTION_DDOT":0},{"OBJECT_NAME":"ONEWEB-0406","OBJECT_ID":"2021-132T","EPOCH":"2025-11-07T06:13:57.835488","MEAN_MOTION":13.18687657,"ECCENTRICITY":0.00016229,"INCLINATION":87.9227,"RA_OF_ASC_NODE":19.5374,"ARG_OF_PERICENTER":84.0189,"MEAN_ANOMALY":276.1128,"EPHEMERIS_TYPE":0,"CLASSIFICATION_TYPE":"U","NORAD_CAT_ID":50486,"ELEMENT_SET_NO":999,"REV_AT_EPOCH":19237,"BSTAR":0.00011060275,"MEAN_MOTION_DOT":5.7e-7,"MEAN_MOTION_DDOT":0},{"OBJECT_NAME":"ONEWEB-0407","OBJECT_ID":"2021-132U","EPOCH":"2025-11-07T06:04:27.898752","MEAN_MOTION":13.18686334,"ECCENTRICITY":0.00019612,"INCLINATION":87.9225,"RA_OF_ASC_NODE":19.5228,"ARG_OF_PERICENTER":103.7199,"MEAN_ANOMALY":256.4152,"EPHEMERIS_TYPE":0,"CLASSIFICATION_TYPE":"U","NORAD_CAT_ID":50487,"ELEMENT_SET_NO":999,"REV_AT_EPOCH":19231,"BSTAR":-9.3479276e-5,"MEAN_MOTION_DOT":-2.4e-7,"MEAN_MOTION_DDOT":0},{"OBJECT_NAME":"ONEWEB-0409","OBJECT_ID":"2021-132V","EPOCH":"2025-11-07T05:31:04.988640","MEAN_MOTION":13.11416168,"ECCENTRICITY":0.00014287,"INCLINATION":87.8866,"RA_OF_ASC_NODE":65.2365,"ARG_OF_PERICENTER":87.9957,"MEAN_ANOMALY":272.1335,"EPHEMERIS_TYPE":0,"CLASSIFICATION_TYPE":"U","NORAD_CAT_ID":50488,"ELEMENT_SET_NO":999,"REV_AT_EPOCH":18649,"BSTAR":0.0015136094,"MEAN_MOTION_DOT":5.49e-6,"MEAN_MOTION_DDOT":0},{"OBJECT_NAME":"ONEWEB-0412","OBJECT_ID":"2021-132W","EPOCH":"2025-11-07T05:47:49.163136","MEAN_MOTION":13.18686802,"ECCENTRICITY":0.00018305,"INCLINATION":87.9224,"RA_OF_ASC_NODE":19.5377,"ARG_OF_PERICENTER":112.2457,"MEAN_ANOMALY":247.8869,"EPHEMERIS_TYPE":0,"CLASSIFICATION_TYPE":"U","NORAD_CAT_ID":50489,"ELEMENT_SET_NO":999,"REV_AT_EPOCH":19240,"BSTAR":0.00014859621,"MEAN_MOTION_DOT":7.1e-7,"MEAN_MOTION_DDOT":0},{"OBJECT_NAME":"ONEWEB-0413","OBJECT_ID":"2021-132X","EPOCH":"2025-11-07T05:54:57.457440","MEAN_MOTION":13.18687073,"ECCENTRICITY":0.00019565,"INCLINATION":87.9219,"RA_OF_ASC_NODE":19.553,"ARG_OF_PERICENTER":109.7308,"MEAN_ANOMALY":250.4035,"EPHEMERIS_TYPE":0,"CLASSIFICATION_TYPE":"U","NORAD_CAT_ID":50490,"ELEMENT_SET_NO":999,"REV_AT_EPOCH":19234,"BSTAR":3.84652e-7,"MEAN_MOTION_DOT":1.3e-7,"MEAN_MOTION_DDOT":0},{"OBJECT_NAME":"ONEWEB-0414","OBJECT_ID":"2021-132Y","EPOCH":"2025-11-07T05:33:34.784640","MEAN_MOTION":13.18687234,"ECCENTRICITY":0.00016756,"INCLINATION":87.9227,"RA_OF_ASC_NODE":19.5157,"ARG_OF_PERICENTER":106.4668,"MEAN_ANOMALY":253.6649,"EPHEMERIS_TYPE":0,"CLASSIFICATION_TYPE":"U","NORAD_CAT_ID":50491,"ELEMENT_SET_NO":999,"REV_AT_EPOCH":19237,"BSTAR":9.002161e-5,"MEAN_MOTION_DOT":4.8e-7,"MEAN_MOTION_DDOT":0},{"OBJECT_NAME":"ONEWEB-0417","OBJECT_ID":"2021-132Z","EPOCH":"2025-11-07T05:45:27.461952","MEAN_MOTION":13.18687618,"ECCENTRICITY":0.00016285,"INCLINATION":87.9229,"RA_OF_ASC_NODE":19.5478,"ARG_OF_PERICENTER":94.8796,"MEAN_ANOMALY":265.2522,"EPHEMERIS_TYPE":0,"CLASSIFICATION_TYPE":"U","NORAD_CAT_ID":50492,"ELEMENT_SET_NO":999,"REV_AT_EPOCH":19235,"BSTAR":7.0012442e-5,"MEAN_MOTION_DOT":4.1e-7,"MEAN_MOTION_DDOT":0},{"OBJECT_NAME":"ONEWEB-0418","OBJECT_ID":"2021-132AA","EPOCH":"2025-11-07T05:59:31.320384","MEAN_MOTION":13.18686652,"ECCENTRICITY":0.00014651,"INCLINATION":87.9224,"RA_OF_ASC_NODE":19.5308,"ARG_OF_PERICENTER":88.2698,"MEAN_ANOMALY":271.8602,"EPHEMERIS_TYPE":0,"CLASSIFICATION_TYPE":"U","NORAD_CAT_ID":50493,"ELEMENT_SET_NO":999,"REV_AT_EPOCH":19241,"BSTAR":5.9129121e-5,"MEAN_MOTION_DOT":3.6e-7,"MEAN_MOTION_DDOT":0},{"OBJECT_NAME":"ONEWEB-0419","OBJECT_ID":"2021-132AB","EPOCH":"2025-11-07T06:25:50.300256","MEAN_MOTION":13.18686729,"ECCENTRICITY":0.0001804,"INCLINATION":87.9227,"RA_OF_ASC_NODE":19.5274,"ARG_OF_PERICENTER":89.7785,"MEAN_ANOMALY":270.3554,"EPHEMERIS_TYPE":0,"CLASSIFICATION_TYPE":"U","NORAD_CAT_ID":50494,"ELEMENT_SET_NO":999,"REV_AT_EPOCH":19233,"BSTAR":4.054457e-6,"MEAN_MOTION_DOT":1.5e-7,"MEAN_MOTION_DDOT":0},{"OBJECT_NAME":"ONEWEB-0420","OBJECT_ID":"2021-132AC","EPOCH":"2025-11-07T05:35:57.496704","MEAN_MOTION":13.1868732,"ECCENTRICITY":0.00021292,"INCLINATION":87.9227,"RA_OF_ASC_NODE":19.5455,"ARG_OF_PERICENTER":106.4726,"MEAN_ANOMALY":253.664,"EPHEMERIS_TYPE":0,"CLASSIFICATION_TYPE":"U","NORAD_CAT_ID":50495,"ELEMENT_SET_NO":999,"REV_AT_EPOCH":19232,"BSTAR":0.00013776283,"MEAN_MOTION_DOT":6.7e-7,"MEAN_MOTION_DDOT":0}]
