ONEWEB-0399             
1 50479U 21132L   25311.25025149  .00000218  00000+0  57988-3 0  9994
2 50479  87.8852  65.2603 0001065 105.2848 254.8398 13.11414282186514
ONEWEB-0400             
1 50480U 21132M   25311.22175252  .00000050  00000+0  94997-4 0  9990
2 50480  87.9223  19.5258 0001915  95.6644 264.4707 13.18687751192357
ONEWEB-0401             
1 50481U 21132N   25311.26629897  .00000027  00000+0  36527-4 0  9993
2 50481  87.9223  19.5142 0001837 107.0076 253.1258 13.18686923192367
ONEWEB-0402             
1 50482U 21132P   25311.23000596  .00000057  00000+0  11300-3 0  9994
2 50482  87.9224  19.5141 0002010 119.3256 240.8077 13.18686597192389
ONEWEB-0403             
1 50483U 21132Q   25311.25474685  .00000024  00000+0  28202-4 0  9995
2 50483  87.9226  19.5300 0001721  97.8892 262.2435 13.18687143192343
ONEWEB-0404             
1 50484U 21132R   25310.77382942  .00000543  00000+0  14960-2 0  9996
2 50484  87.8851  65.3634 0001248  93.7531 266.3739 13.11418146186540
ONEWEB-0405             
1 50485U 21132S   25311.26959468  .00000104  00000+0  23230-3 0  9999
2 50485  87.9224  19.5109 0001767 110.8769 249.2553 13.18686609192745
ONEWEB-0406             
1 50486U 21132T   25311.25969717  .00000057  00000+0  11060-3 0  9992
2 50486  87.9227  19.5374 0001622  84.0189 276.1128 13.18687657192371
ONEWEB-0407             
1 50487U 21132U   25311.25310068 -.00000024  00000+0 -93479-4 0  9993
2 50487  87.9225  19.5228 0001961 103.7199 256.4152 13.18686334192317
ONEWEB-0409             
1 50488U 21132V   25311.22991885  .00000549  00000+0  15136-2 0  9995
2 50488  87.8866  65.2365 0001428  87.9957 272.1335 13.11416168186490
ONEWEB-0412             
1 50489U 21132W   25311.24154124  .00000071  00000+0  14860-3 0  9999
2 50489  87.9224  19.5377 0001830 112.2457 247.8869 13.18686802192409
ONEWEB-0413             
1 50490U 21132X   25311.24649835  .00000013  00000+0  38465-6 0  9995
2 50490  87.9219  19.5530 0001956 109.7308 250.4035 13.18687073192340
ONEWEB-0414             
1 50491U 21132Y   25311.23165260  .00000048  00000+0  90022-4 0  9993
2 50491  87.9227  19.5157 0001675 106.4668 253.6649 13.18687234192374
ONEWEB-0417             
1 50492U 21132Z   25311.23990118  .00000041  00000+0  70012-4 0  9992
2 50492  87.9229  19.5478 0001628  94.8796 265.2522 13.18687618192356
ONEWEB-0418             
1 50493U 21132AA  25311.24966806  .00000036  00000+0  59129-4 0  9991
2 50493  87.9224  19.5308 0001465  88.2698 271.8602 13.18686652192417
ONEWEB-0419             
1 50494U 21132AB  25311.26794329  .00000015  00000+0  40545-5 0  9993
2 50494  87.9227  19.5274 0001804  89.7785 270.3554 13.18686729192339
ONEWEB-0420             
1 50495U 21132AC  25311.23330436  .00000067  00000+0  13776-3 0  9997
2 50495  87.9227  19.5455 0002129 106.4726 253.6640 13.18687320192321
